NORAD_CAT_ID,OBJECT_NAME,OBJECT_TYPE,EPOCH,MEAN_MOTION,ECCENTRICITY,INCLINATION,RA_OF_ASC_NODE,ARG_OF_PERICENTER,MEAN_ANOMALY,BSTAR,MEAN_MOTION_DOT,MEAN_MOTION_DDOT,TLE_LINE0,TLE_LINE1,TLE_LINE2,SEMIMAJOR_AXIS,PERIOD,APOGEE,PERIGEE,DECAYED
52496.0,STARLINK-3871,PAYLOAD,2023-10-07 19:19:00,15.0885938,0.0001245,53.2171,52.031,90.2622,269.8512,0.00085527,0.00013357,0.0,0 STARLINK-3871,1 52496U 22049AX  23280.80486616  .00013357  00000-0  85527-3 0  9996,2 52496  53.2171  52.0310 0001245  90.2622 269.8512 15.08859380 79029,6917.821,95.436,540.547,538.825,0.0
52496.0,STARLINK-3871,PAYLOAD,2023-10-08 01:40:33,15.08844093,0.0002702,53.2172,50.8424,83.1648,276.9651,0.00028689,4.281e-05,0.0,0 STARLINK-3871,1 52496U 22049AX  23281.06983336  .00004281  00000-0  28689-3 0  9998,2 52496  53.2172  50.8424 0002702  83.1648 276.9651 15.08844093 79062,6917.868,95.437,541.602,537.864,0.0
52496.0,STARLINK-3871,PAYLOAD,2023-10-08 12:48:15,15.08839284,0.0001449,53.2177,48.763,90.5401,269.5757,-4.3975e-05,-9.88e-06,0.0,0 STARLINK-3871,1 52496U 22049AX  23281.53350936 -.00000988  00000-0 -43975-4 0  9992,2 52496  53.2177  48.7630 0001449  90.5401 269.5757 15.08839284 79137,6917.883,95.438,540.75,538.745,0.0
52496.0,STARLINK-3871,PAYLOAD,2023-10-08 15:59:01,15.08844369,0.0001515,53.2172,48.1669,86.8429,273.2736,0.00015126,2.12e-05,0.0,0 STARLINK-3871,1 52496U 22049AX  23281.66598905  .00002120  00000-0  15126-3 0  9990,2 52496  53.2172  48.1669 0001515  86.8429 273.2736 15.08844369 79151,6917.867,95.437,540.78,538.684,0.0
52496.0,STARLINK-3871,PAYLOAD,2023-10-09 07:52:52,15.08839184,0.0001509,53.2179,45.1949,86.447,273.6694,2.1014e-05,4.6e-07,0.0,0 STARLINK-3871,1 52496U 22049AX  23282.32839065  .00000046  00000-0  21014-4 0  9998,2 52496  53.2179  45.1949 0001509  86.4470 273.6694 15.08839184 79258,6917.883,95.438,540.792,538.704,0.0
52496.0,STARLINK-3871,PAYLOAD,2023-10-09 12:39:02,15.08838061,0.0001692,53.218,44.3018,88.342,271.7766,1.9137e-05,1.7e-07,0.0,0 STARLINK-3871,1 52496U 22049AX  23282.52711207  .00000017  00000-0  19137-4 0  9998,2 52496  53.2180  44.3018 0001692  88.3420 271.7766 15.08838061 79282,6917.886,95.438,540.922,538.581,0.0
52496.0,STARLINK-3871,PAYLOAD,2023-10-09 15:49:48,15.08842287,0.0001616,53.2184,43.7068,88.4417,271.676,9.2239e-05,1.18e-05,0.0,0 STARLINK-3871,1 52496U 22049AX  23282.65959128  .00001180  00000-0  92239-4 0  9994,2 52496  53.2184  43.7068 0001616  88.4417 271.6760 15.08842287 79308,6917.873,95.437,540.856,538.62,0.0
52496.0,STARLINK-3871,PAYLOAD,2023-10-10 14:05:12,15.08845968,0.0001571,53.2172,39.542,86.976,273.1412,0.00023478,3.451e-05,0.0,0 STARLINK-3871,1 52496U 22049AX  23283.58694914  .00003451  00000-0  23478-3 0  9997,2 52496  53.2172  39.5420 0001571  86.9760 273.1412 15.08845968 79449,6917.862,95.437,540.814,538.64,0.0
52496.0,STARLINK-3871,PAYLOAD,2023-10-10 17:15:58,15.08858987,0.000164,53.2182,38.9444,88.7337,271.3843,0.00039702,6.039e-05,0.0,0 STARLINK-3871,1 52496U 22049AX  23283.71942304  .00006039  00000-0  39702-3 0  9993,2 52496  53.2182  38.9444 0001640  88.7337 271.3843 15.08858987 79461,6917.822,95.436,540.822,538.553,0.0
52496.0,STARLINK-3871,PAYLOAD,2023-10-11 13:56:00,15.08835052,0.0001423,53.218,35.0833,85.6902,274.4253,2.8259e-05,1.62e-06,0.0,0 STARLINK-3871,1 52496U 22049AX  23284.58055561  .00000162  00000-0  28259-4 0  9996,2 52496  53.2180  35.0833 0001423  85.6902 274.4253 15.08835052 79593,6917.896,95.438,540.745,538.776,0.0
52496.0,STARLINK-3871,PAYLOAD,2023-10-12 13:46:46,15.08852517,0.0001662,53.2191,30.622,93.2806,266.8376,0.00026665,3.96e-05,0.0,0 STARLINK-3871,1 52496U 22049AX  23285.57415075  .00003960  00000-0  26665-3 0  9993,2 52496  53.2191  30.6220 0001662  93.2806 266.8376 15.08852517 79742,6917.842,95.437,540.857,538.557,0.0
52496.0,STARLINK-3871,PAYLOAD,2023-10-13 13:37:34,15.08848439,0.0001473,53.2183,26.1622,77.601,282.5147,0.0003342,5.036e-05,0.0,0 STARLINK-3871,1 52496U 22049AX  23286.56775517  .00005036  00000-0  33420-3 0  9996,2 52496  53.2183  26.1622 0001473  77.6010 282.5147 15.08848439 79897,6917.855,95.437,540.739,538.701,0.0
52496.0,STARLINK-3871,PAYLOAD,2023-10-14 13:28:20,15.08861712,0.0001681,53.2193,21.7054,87.5056,272.6128,0.00046639,7.147e-05,0.0,0 STARLINK-3871,1 52496U 22049AX  23287.56134544  .00007147  00000-0  46639-3 0  9997,2 52496  53.2193  21.7054 0001681  87.5056 272.6128 15.08861712 80046,6917.814,95.436,540.842,538.516,0.0
52496.0,STARLINK-3871,PAYLOAD,2023-10-14 23:00:39,15.08838265,0.0001847,53.2185,19.9156,80.2016,279.9185,-8.3449e-05,-1.616e-05,0.0,0 STARLINK-3871,1 52496U 22049AX  23287.95879240 -.00001616  00000-0 -83449-4 0  9997,2 52496  53.2185  19.9156 0001847  80.2016 279.9185 15.08838265 80106,6917.886,95.438,541.028,538.473,0.0
52496.0,STARLINK-3871,PAYLOAD,2023-10-15 13:19:08,15.08821667,0.0001596,53.218,17.2435,98.6037,261.5136,-0.00033917,-5.679e-05,0.0,0 STARLINK-3871,1 52496U 22049AX  23288.55496148 -.00005679  00000-0 -33917-3 0  9993,2 52496  53.2180  17.2435 0001596  98.6037 261.5136 15.08821667 80199,6917.936,95.439,540.906,538.697,0.0
52496.0,STARLINK-3871,PAYLOAD,2023-10-15 14:54:31,15.08828421,0.0001496,53.2181,16.9438,92.5137,267.6026,-0.00012759,-2.317e-05,0.0,0 STARLINK-3871,1 52496U 22049AX  23288.62120032 -.00002317  00000-0 -12759-3 0  9994,2 52496  53.2181  16.9438 0001496  92.5137 267.6026 15.08828421 80204,6917.916,95.438,540.816,538.746,0.0
52496.0,STARLINK-3871,PAYLOAD,2023-10-15 22:51:27,15.08832082,0.0001644,53.2188,15.4592,95.0391,265.0789,0.00011267,1.505e-05,0.0,0 STARLINK-3871,1 52496U 22049AX  23288.95240331  .00001505  00000-0  11267-3 0  9994,2 52496  53.2188  15.4592 0001644  95.0391 265.0789 15.08832082 80252,6917.905,95.438,540.907,538.632,0.0
52496.0,STARLINK-3871,PAYLOAD,2023-10-16 13:09:56,15.08857216,0.0001523,53.2181,12.7828,92.2888,267.8278,0.0013663,0.00021534,0.0,0 STARLINK-3871,1 52496U 22049AX  23289.54856484  .00021534  00000-0  13663-2 0  9997,2 52496  53.2181  12.7828 0001523  92.2888 267.8278 15.08857216 80342,6917.828,95.436,540.746,538.639,0.0
52496.0,STARLINK-3871,PAYLOAD,2023-10-16 14:45:19,15.08861718,0.0001513,53.2176,12.4855,87.3721,272.7445,0.0015666,0.00024747,0.0,0 STARLINK-3871,1 52496U 22049AX  23289.61480404  .00024747  00000-0  15666-2 0  9994,2 52496  53.2176  12.4855 0001513  87.3721 272.7445 15.08861718 80357,6917.814,95.436,540.726,538.632,0.0
52496.0,STARLINK-3871,PAYLOAD,2023-10-17 11:25:19,15.08853331,0.0001586,53.2174,8.6178,80.6738,279.4434,0.00053985,8.317e-05,0.0,0 STARLINK-3871,1 52496U 22049AX  23290.47592262  .00008317  00000-0  53985-3 0  9998,2 52496  53.2174   8.6178 0001586  80.6738 279.4434 15.08853331 80482,6917.84,95.437,540.802,538.607,0.0
52496.0,STARLINK-3871,PAYLOAD,2023-10-18 00:08:24,15.08860973,0.0001405,53.2167,6.239,92.5919,267.5234,0.00056811,8.77e-05,0.0,0 STARLINK-3871,1 52496U 22049AX  23291.00583652  .00008770  00000-0  56811-3 0  9995,2 52496  53.2167   6.2390 0001405  92.5919 267.5234 15.08860973 80562,6917.816,95.436,540.653,538.709,0.0
52496.0,STARLINK-3871,PAYLOAD,2023-10-18 22:23:47,15.08861001,0.0001888,53.2171,2.0817,78.7363,281.3841,0.00027303,4.062e-05,0.0,0 STARLINK-3871,1 52496U 22049AX  23291.93318899  .00004062  00000-0  27303-3 0  9990,2 52496  53.2171   2.0817 0001888  78.7363 281.3841 15.08861001 80706,6917.816,95.436,540.987,538.375,0.0
52496.0,STARLINK-3871,PAYLOAD,2023-10-19 11:06:52,15.08843527,0.0001706,53.2174,359.7001,87.142,272.9767,-4.0053e-05,-9.26e-06,0.0,0 STARLINK-3871,1 52496U 22049AX  23292.46311241 -.00000926  00000-0 -40053-4 0  9998,2 52496  53.2174 359.7001 0001706  87.1420 272.9767 15.08843527 80787,6917.87,95.437,540.915,538.554,0.0
52496.0,STARLINK-3871,PAYLOAD,2023-10-19 14:17:38,15.0885015,0.0001871,53.2189,359.0993,113.1347,246.9843,0.00011407,1.528e-05,0.0,0 STARLINK-3871,1 52496U 22049AX  23292.59558856  .00001528  00000-0  11407-3 0  9994,2 52496  53.2189 359.0993 0001871 113.1347 246.9843 15.08850150 80806,6917.849,95.437,541.009,538.42,0.0
52496.0,STARLINK-3871,PAYLOAD,2023-10-20 10:57:40,15.08832663,0.0001644,53.2178,355.2394,99.4221,260.6957,0.00025149,3.716e-05,0.0,0 STARLINK-3871,1 52496U 22049AX  23293.45672104  .00003716  00000-0  25149-3 0  9992,2 52496  53.2178 355.2394 0001644  99.4221 260.6957 15.08832663 80934,6917.903,95.438,540.905,538.631,0.0
52496.0,STARLINK-3871,PAYLOAD,2023-10-20 14:08:26,15.08835455,0.0001643,53.2184,354.6407,102.0018,258.1159,0.00043041,6.568e-05,0.0,0 STARLINK-3871,1 52496U 22049AX  23293.58920128  .00006568  00000-0  43041-3 0  9997,2 52496  53.2184 354.6407 0001643 102.0018 258.1159 15.08835455 80953,6917.894,95.438,540.896,538.623,0.0
52496.0,STARLINK-3871,PAYLOAD,2023-10-21 13:59:14,15.08843111,0.0001546,53.2181,350.1812,93.0069,267.11,0.0011125,0.00017463,0.0,0 STARLINK-3871,1 52496U 22049AX  23294.58280775  .00017463  00000-0  11125-2 0  9998,2 52496  53.2181 350.1812 0001546  93.0069 267.1100 15.08843111 81100,6917.871,95.437,540.805,538.666,0.0
52496.0,STARLINK-3871,PAYLOAD,2023-10-22 04:17:42,15.08837275,0.0001482,53.2184,347.5057,87.162,272.9542,0.00044124,6.741e-05,0.0,0 STARLINK-3871,1 52496U 22049AX  23295.17896882  .00006741  00000-0  44124-3 0  9999,2 52496  53.2184 347.5057 0001482  87.1620 272.9542 15.08837275 81197,6917.889,95.438,540.779,538.728,0.0
52496.0,STARLINK-3871,PAYLOAD,2023-10-22 10:39:15,15.08842563,0.0001499,53.2181,346.3169,82.5419,277.5743,0.00063652,9.857e-05,0.0,0 STARLINK-3871,1 52496U 22049AX  23295.44392886  .00009857  00000-0  63652-3 0  9992,2 52496  53.2181 346.3169 0001499  82.5419 277.5743 15.08842563 81233,6917.873,95.437,540.775,538.701,0.0
52496.0,STARLINK-3871,PAYLOAD,2023-10-22 20:11:34,15.08839952,0.0001407,53.2188,344.5322,78.9244,281.1906,0.00019243,2.776e-05,0.0,0 STARLINK-3871,1 52496U 22049AX  23295.84136978  .00002776  00000-0  19243-3 0  9994,2 52496  53.2188 344.5322 0001407  78.9244 281.1906 15.08839952 81291,6917.881,95.438,540.719,538.772,0.0
